COSMO-SKYMED 3          
1 33412U 08054A   25151.82782846  .00003443  00000+0  25695-3 0  9992
2 33412  97.8715 358.9971 0018968 112.8041 247.5189 15.03402184899575
YAOGAN-4                
1 33446U 08061A   25151.78663661  .00001017  00000+0  13471-3 0  9999
2 33446  97.9046  84.1541 0013401 229.2213 130.7837 14.82022784889158
GOSAT (IBUKI)           
1 33492U 09002A   25151.59273865  .00000102  00000+0  26344-4 0  9996
2 33492  98.0624 263.0913 0001663 120.1534 239.9836 14.67554419875958
YAOGAN-6                
1 34839U 09021A   25151.45313427  .00384108  72222-4  48380-3 0  9991
2 34839  97.1860 132.6964 0002109 165.3215 194.8130 16.07580493897953
DEIMOS-1                
1 35681U 09041A   25151.84954317  .00000679  00000+0  10892-3 0  9996
2 35681  97.7000 321.7856 0001650  43.3063 316.8275 14.74585923850677
DUBAISAT-1              
1 35682U 09041B   25151.86175028  .00001232  00000+0  19509-3 0  9993
2 35682  97.9542 285.8501 0010060 208.5713 151.4945 14.73949144848964
OCEANSAT-2              
1 35931U 09051A   25151.88366956 -.00000172  00000+0 -91704-4 0  9997
2 35931  98.2229 172.1772 0015982 228.8175 131.1614 13.99586664825997
WORLDVIEW-2 (WV-2)      
1 35946U 09055A   25151.55308293  .00000145  00000+0  63464-4 0  9991
2 35946  98.4790 225.3798 0002878 289.9346  70.1530 14.37195024820819
SMOS                    
1 36036U 09059A   25151.79420192  .00000266  00000+0  98820-4 0  9993
2 36036  98.4426 339.6781 0001229  85.5286 274.6042 14.39773600818718
YAOGAN-7                
1 36110U 09069A   25151.66024931  .00000519  00000+0  80024-4 0  9992
2 36110  98.0570  33.8977 0024624 185.3306 174.7646 14.77410774833329
TANDEM-X                
1 36605U 10030A   25151.81441971  .00001308  00000+0  65497-4 0  9999
2 36605  97.4462 159.9721 0001648  88.0895 272.0528 15.19146137828737
CARTOSAT-2B             
1 36795U 10035A   25151.83190917  .00000801  00000+0  11575-3 0  9991
2 36795  97.8093 206.8322 0011165 356.4503   3.6628 14.78771674803571
YAOGAN-10               
1 36834U 10038A   25151.90169191  .00000686  00000+0  88501-4 0  9991
2 36834  97.9258 173.0267 0001400  90.5785  29.1674 14.84194276800701
COSMO-SKYMED 4          
1 37216U 10060A   25151.67175512  .00000471  00000+0  65769-4 0  9992
2 37216  97.8872 335.8115 0001419  91.1785 268.9590 14.82147840788117
