[
  {
    "OBJECT_NAME": "COSMO-SKYMED 3",
    "OBJECT_ID": "2008-054A",
    "EPOCH": "2025-05-31T19:52:04.378944",
    "MEAN_MOTION": 15.03402184,
    "ECCENTRICITY": 0.0018968,
    "INCLINATION": 97.8715,
    "RA_OF_ASC_NODE": 358.9971,
    "ARG_OF_PERICENTER": 112.8041,
    "MEAN_ANOMALY": 247.5189,
    "EPHEMERIS_TYPE": 0,
    "CLASSIFICATION_TYPE": "U",
    "NORAD_CAT_ID": 33412,
    "ELEMENT_SET_NO": 999,
    "REV_AT_EPOCH": 89957,
    "BSTAR": 0.00025695,
    "MEAN_MOTION_DOT": 3.443e-05,
    "MEAN_MOTION_DDOT": 0
  },
  {
    "OBJECT_NAME": "YAOGAN-4",
    "OBJECT_ID": "2008-061A",
    "EPOCH": "2025-05-31T18:52:45.403104",
    "MEAN_MOTION": 14.82022784,
    "ECCENTRICITY": 0.0013401,
    "INCLINATION": 97.9046,
    "RA_OF_ASC_NODE": 84.1541,
    "ARG_OF_PERICENTER": 229.2213,
    "MEAN_ANOMALY": 130.7837,
    "EPHEMERIS_TYPE": 0,
    "CLASSIFICATION_TYPE": "U",
    "NORAD_CAT_ID": 33446,
    "ELEMENT_SET_NO": 999,
    "REV_AT_EPOCH": 88915,
    "BSTAR": 0.00013471,
    "MEAN_MOTION_DOT": 1.017e-05,
    "MEAN_MOTION_DDOT": 0
  },
  {
    "OBJECT_NAME": "GOSAT (IBUKI)",
    "OBJECT_ID": "2009-002A",
    "EPOCH": "2025-05-31T14:13:32.619360",
    "MEAN_MOTION": 14.67554419,
    "ECCENTRICITY": 0.0001663,
    "INCLINATION": 98.0624,
    "RA_OF_ASC_NODE": 263.0913,
    "ARG_OF_PERICENTER": 120.1534,
    "MEAN_ANOMALY": 239.9836,
    "EPHEMERIS_TYPE": 0,
    "CLASSIFICATION_TYPE": "U",
    "NORAD_CAT_ID": 33492,
    "ELEMENT_SET_NO": 999,
    "REV_AT_EPOCH": 87595,
    "BSTAR": 2.6344e-05,
    "MEAN_MOTION_DOT": 1.02e-06,
    "MEAN_MOTION_DDOT": 0
  },
  {
    "OBJECT_NAME": "YAOGAN-6",
    "OBJECT_ID": "2009-021A",
    "EPOCH": "2025-05-31T10:52:30.800928",
    "MEAN_MOTION": 16.07580493,
    "ECCENTRICITY": 0.0002109,
    "INCLINATION": 97.186,
    "RA_OF_ASC_NODE": 132.6964,
    "ARG_OF_PERICENTER": 165.3215,
    "MEAN_ANOMALY": 194.813,
    "EPHEMERIS_TYPE": 0,
    "CLASSIFICATION_TYPE": "U",
    "NORAD_CAT_ID": 34839,
    "ELEMENT_SET_NO": 999,
    "REV_AT_EPOCH": 89795,
    "BSTAR": 0.0004838,
    "MEAN_MOTION_DOT": 0.00384108,
    "MEAN_MOTION_DDOT": 7.2222e-05
  },
  {
    "OBJECT_NAME": "DEIMOS-1",
    "OBJECT_ID": "2009-041A",
    "EPOCH": "2025-05-31T20:23:20.529888",
    "MEAN_MOTION": 14.74585923,
    "ECCENTRICITY": 0.000165,
    "INCLINATION": 97.7,
    "RA_OF_ASC_NODE": 321.7856,
    "ARG_OF_PERICENTER": 43.3063,
    "MEAN_ANOMALY": 316.8275,
    "EPHEMERIS_TYPE": 0,
    "CLASSIFICATION_TYPE": "U",
    "NORAD_CAT_ID": 35681,
    "ELEMENT_SET_NO": 999,
    "REV_AT_EPOCH": 85067,
    "BSTAR": 0.00010892,
    "MEAN_MOTION_DOT": 6.79e-06,
    "MEAN_MOTION_DDOT": 0
  },
  {
    "OBJECT_NAME": "DUBAISAT-1",
    "OBJECT_ID": "2009-041B",
    "EPOCH": "2025-05-31T20:40:55.224192",
    "MEAN_MOTION": 14.73949144,
    "ECCENTRICITY": 0.001006,
    "INCLINATION": 97.9542,
    "RA_OF_ASC_NODE": 285.8501,
    "ARG_OF_PERICENTER": 208.5713,
    "MEAN_ANOMALY": 151.4945,
    "EPHEMERIS_TYPE": 0,
    "CLASSIFICATION_TYPE": "U",
    "NORAD_CAT_ID": 35682,
    "ELEMENT_SET_NO": 999,
    "REV_AT_EPOCH": 84896,
    "BSTAR": 0.00019509,
    "MEAN_MOTION_DOT": 1.232e-05,
    "MEAN_MOTION_DDOT": 0
  },
  {
    "OBJECT_NAME": "OCEANSAT-2",
    "OBJECT_ID": "2009-051A",
    "EPOCH": "2025-05-31T21:12:29.049984",
    "MEAN_MOTION": 13.99586664,
    "ECCENTRICITY": 0.0015982,
    "INCLINATION": 98.2229,
    "RA_OF_ASC_NODE": 172.1772,
    "ARG_OF_PERICENTER": 228.8175,
    "MEAN_ANOMALY": 131.1614,
    "EPHEMERIS_TYPE": 0,
    "CLASSIFICATION_TYPE": "U",
    "NORAD_CAT_ID": 35931,
    "ELEMENT_SET_NO": 999,
    "REV_AT_EPOCH": 82599,
    "BSTAR": -9.1704e-05,
    "MEAN_MOTION_DOT": -1.72e-06,
    "MEAN_MOTION_DDOT": 0
  },
  {
    "OBJECT_NAME": "WORLDVIEW-2 (WV-2)",
    "OBJECT_ID": "2009-055A",
    "EPOCH": "2025-05-31T13:16:26.365152",
    "MEAN_MOTION": 14.37195024,
    "ECCENTRICITY": 0.0002878,
    "INCLINATION": 98.479,
    "RA_OF_ASC_NODE": 225.3798,
    "ARG_OF_PERICENTER": 289.9346,
    "MEAN_ANOMALY": 70.153,
    "EPHEMERIS_TYPE": 0,
    "CLASSIFICATION_TYPE": "U",
    "NORAD_CAT_ID": 35946,
    "ELEMENT_SET_NO": 999,
    "REV_AT_EPOCH": 82081,
    "BSTAR": 6.3464e-05,
    "MEAN_MOTION_DOT": 1.45e-06,
    "MEAN_MOTION_DDOT": 0
  },
  {
    "OBJECT_NAME": "SMOS",
    "OBJECT_ID": "2009-059A",
    "EPOCH": "2025-05-31T19:03:39.045888",
    "MEAN_MOTION": 14.397736,
    "ECCENTRICITY": 0.0001229,
    "INCLINATION": 98.4426,
    "RA_OF_ASC_NODE": 339.6781,
    "ARG_OF_PERICENTER": 85.5286,
    "MEAN_ANOMALY": 274.6042,
    "EPHEMERIS_TYPE": 0,
    "CLASSIFICATION_TYPE": "U",
    "NORAD_CAT_ID": 36036,
    "ELEMENT_SET_NO": 999,
    "REV_AT_EPOCH": 81871,
    "BSTAR": 9.882e-05,
    "MEAN_MOTION_DOT": 2.66e-06,
    "MEAN_MOTION_DDOT": 0
  },
  {
    "OBJECT_NAME": "YAOGAN-7",
    "OBJECT_ID": "2009-069A",
    "EPOCH": "2025-05-31T15:50:45.540384",
    "MEAN_MOTION": 14.77410774,
    "ECCENTRICITY": 0.0024624,
    "INCLINATION": 98.057,
    "RA_OF_ASC_NODE": 33.8977,
    "ARG_OF_PERICENTER": 185.3306,
    "MEAN_ANOMALY": 174.7646,
    "EPHEMERIS_TYPE": 0,
    "CLASSIFICATION_TYPE": "U",
    "NORAD_CAT_ID": 36110,
    "ELEMENT_SET_NO": 999,
    "REV_AT_EPOCH": 83332,
    "BSTAR": 8.0024e-05,
    "MEAN_MOTION_DOT": 5.19e-06,
    "MEAN_MOTION_DDOT": 0
  },
  {
    "OBJECT_NAME": "TANDEM-X",
    "OBJECT_ID": "2010-030A",
    "EPOCH": "2025-05-31T19:32:45.862944",
    "MEAN_MOTION": 15.19146137,
    "ECCENTRICITY": 0.0001648,
    "INCLINATION": 97.4462,
    "RA_OF_ASC_NODE": 159.9721,
    "ARG_OF_PERICENTER": 88.0895,
    "MEAN_ANOMALY": 272.0528,
    "EPHEMERIS_TYPE": 0,
    "CLASSIFICATION_TYPE": "U",
    "NORAD_CAT_ID": 36605,
    "ELEMENT_SET_NO": 999,
    "REV_AT_EPOCH": 82873,
    "BSTAR": 6.5497e-05,
    "MEAN_MOTION_DOT": 1.308e-05,
    "MEAN_MOTION_DDOT": 0
  },
  {
    "OBJECT_NAME": "CARTOSAT-2B",
    "OBJECT_ID": "2010-035A",
    "EPOCH": "2025-05-31T19:57:56.952288",
    "MEAN_MOTION": 14.78771674,
    "ECCENTRICITY": 0.0011165,
    "INCLINATION": 97.8093,
    "RA_OF_ASC_NODE": 206.8322,
    "ARG_OF_PERICENTER": 356.4503,
    "MEAN_ANOMALY": 3.6628,
    "EPHEMERIS_TYPE": 0,
    "CLASSIFICATION_TYPE": "U",
    "NORAD_CAT_ID": 36795,
    "ELEMENT_SET_NO": 999,
    "REV_AT_EPOCH": 80357,
    "BSTAR": 0.00011575,
    "MEAN_MOTION_DOT": 8.01e-06,
    "MEAN_MOTION_DDOT": 0
  },
  {
    "OBJECT_NAME": "YAOGAN-10",
    "OBJECT_ID": "2010-038A",
    "EPOCH": "2025-05-31T21:38:26.181024",
    "MEAN_MOTION": 14.84194276,
    "ECCENTRICITY": 0.00014,
    "INCLINATION": 97.9258,
    "RA_OF_ASC_NODE": 173.0267,
    "ARG_OF_PERICENTER": 90.5785,
    "MEAN_ANOMALY": 29.1674,
    "EPHEMERIS_TYPE": 0,
    "CLASSIFICATION_TYPE": "U",
    "NORAD_CAT_ID": 36834,
    "ELEMENT_SET_NO": 999,
    "REV_AT_EPOCH": 80070,
    "BSTAR": 8.8501e-05,
    "MEAN_MOTION_DOT": 6.86e-06,
    "MEAN_MOTION_DDOT": 0
  },
  {
    "OBJECT_NAME": "COSMO-SKYMED 4",
    "OBJECT_ID": "2010-060A",
    "EPOCH": "2025-05-31T16:07:19.642368",
    "MEAN_MOTION": 14.8214784,
    "ECCENTRICITY": 0.0001419,
    "INCLINATION": 97.8872,
    "RA_OF_ASC_NODE": 335.8115,
    "ARG_OF_PERICENTER": 91.1785,
    "MEAN_ANOMALY": 268.959,
    "EPHEMERIS_TYPE": 0,
    "CLASSIFICATION_TYPE": "U",
    "NORAD_CAT_ID": 37216,
    "ELEMENT_SET_NO": 999,
    "REV_AT_EPOCH": 78811,
    "BSTAR": 6.5769e-05,
    "MEAN_MOTION_DOT": 4.71e-06,
    "MEAN_MOTION_DDOT": 0
  }
]